{"type": "FeatureCollection", "features": [ {"type": "Feature", "properties": {"norad_id": 65077, "name": "CREW DRAGON 11", "group": "stations", "lat": -8.89975261504376, "lon": 8.418440690487325, "alt_km": 418.15806430395696, "timestamp": "2025-12-04T21:36:14.671913+00:00", "meta": {"OBJECT_NAME": "CREW DRAGON 11", "OBJECT_ID": "2025-166A", "EPOCH": "2025-12-04T13:02:29.700384", "MEAN_MOTION": 15.49306035, "ECCENTRICITY": 0.00035956, "INCLINATION": 51.6299, "RA_OF_ASC_NODE": 183.0583, "ARG_OF_PERICENTER": 202.7086, "MEAN_ANOMALY": 157.3744, "EPHEMERIS_TYPE": 0, "CLASSIFICATION_TYPE": "U", "NORAD_CAT_ID": 65077, "ELEMENT_SET_NO": 999, "REV_AT_EPOCH": 214, "BSTAR": 0.00029317999, "MEAN_MOTION_DOT": 0.0001591, "MEAN_MOTION_DDOT": 0}, "tle": {"line1": "1 65077U 25166A   25338.54339931  .00015910  00000+0  29318-3 0  9994", "line2": "2 65077  51.6299 183.0583 0003595 202.7086 157.3744 15.49306035  2148"}}, "geometry": {"type": "Point", "coordinates": [8.418440690487325, -8.89975261504376]}}, {"type": "Feature", "properties": {"norad_id": 65304, "name": "DRAGON CRS-33", "group": "stations", "lat": -8.899753117698458, "lon": 8.418441101113736, "alt_km": 418.1580643540101, "timestamp": "2025-12-04T21:36:14.671923+00:00", "meta": {"OBJECT_NAME": "DRAGON CRS-33", "OBJECT_ID": "2025-186A", "EPOCH": "2025-12-04T13:02:29.700384", "MEAN_MOTION": 15.49306035, "ECCENTRICITY": 0.00035956, "INCLINATION": 51.6299, "RA_OF_ASC_NODE": 183.0583, "ARG_OF_PERICENTER": 202.7086, "MEAN_ANOMALY": 157.3744, "EPHEMERIS_TYPE": 0, "CLASSIFICATION_TYPE": "U", "NORAD_CAT_ID": 65304, "ELEMENT_SET_NO": 999, "REV_AT_EPOCH": 11, "BSTAR": 0.00029317999, "MEAN_MOTION_DOT": 0.0001591, "MEAN_MOTION_DDOT": 0}, "tle": {"line1": "1 65304U 25186A   25338.54339931  .00015910  00000+0  29318-3 0  9999", "line2": "2 65304  51.6299 183.0583 0003595 202.7086 157.3744 15.49306035   116"}}, "geometry": {"type": "Point", "coordinates": [8.418441101113736, -8.899753117698458]}}, {"type": "Feature", "properties": {"norad_id": 65586, "name": "PROGRESS-MS 32", "group": "stations", "lat": -8.89975362035321, "lon": 8.418441511740177, "alt_km": 418.15806440406595, "timestamp": "2025-12-04T21:36:14.671933+00:00", "meta": {"OBJECT_NAME": "PROGRESS-MS 32", "OBJECT_ID": "2025-204A", "EPOCH": "2025-12-04T13:02:29.700384", "MEAN_MOTION": 15.49306035, "ECCENTRICITY": 0.00035956, "INCLINATION": 51.6299, "RA_OF_ASC_NODE": 183.0583, "ARG_OF_PERICENTER": 202.7086, "MEAN_ANOMALY": 157.3744, "EPHEMERIS_TYPE": 0, "CLASSIFICATION_TYPE": "U", "NORAD_CAT_ID": 65586, "ELEMENT_SET_NO": 999, "REV_AT_EPOCH": 27, "BSTAR": 0.00029317999, "MEAN_MOTION_DOT": 0.0001591, "MEAN_MOTION_DDOT": 0}, "tle": {"line1": "1 65586U 25204A   25338.54339931  .00015910  00000+0  29318-3 0  9992", "line2": "2 65586  51.6299 183.0583 0003595 202.7086 157.3744 15.49306035   275"}}, "geometry": {"type": "Point", "coordinates": [8.418441511740177, -8.89975362035321]}}, {"type": "Feature", "properties": {"norad_id": 65616, "name": "CYGNUS NG-23", "group": "stations", "lat": -8.899754123006957, "lon": 8.418441922365847, "alt_km": 418.1580644541182, "timestamp": "2025-12-04T21:36:14.671943+00:00", "meta": {"OBJECT_NAME": "CYGNUS NG-23", "OBJECT_ID": "2025-208A", "EPOCH": "2025-12-04T13:02:29.700384", "MEAN_MOTION": 15.49306035, "ECCENTRICITY": 0.00035956, "INCLINATION": 51.6299, "RA_OF_ASC_NODE": 183.0583, "ARG_OF_PERICENTER": 202.7086, "MEAN_ANOMALY": 157.3744, "EPHEMERIS_TYPE": 0, "CLASSIFICATION_TYPE": "U", "NORAD_CAT_ID": 65616, "ELEMENT_SET_NO": 999, "REV_AT_EPOCH": 22, "BSTAR": 0.00029317999, "MEAN_MOTION_DOT": 0.0001591, "MEAN_MOTION_DDOT": 0}, "tle": {"line1": "1 65616U 25208A   25338.54339931  .00015910  00000+0  29318-3 0  9990", "line2": "2 65616  51.6299 183.0583 0003595 202.7086 157.3744 15.49306035   224"}}, "geometry": {"type": "Point", "coordinates": [8.418441922365847, -8.899754123006957]}}, {"type": "Feature", "properties": {"norad_id": 65729, "name": "DRAGONFLY", "group": "stations", "lat": -43.19012162889565, "lon": 127.7450923090078, "alt_km": 365.11074691500016, "timestamp": "2025-12-04T21:36:14.671953+00:00", "meta": {"OBJECT_NAME": "DRAGONFLY", "OBJECT_ID": "1998-067XH", "EPOCH": "2025-12-04T14:13:07.489056", "MEAN_MOTION": 15.68739886, "ECCENTRICITY": 0.00065461, "INCLINATION": 51.6239, "RA_OF_ASC_NODE": 177.3823, "ARG_OF_PERICENTER": 225.5504, "MEAN_ANOMALY": 134.4958, "EPHEMERIS_TYPE": 0, "CLASSIFICATION_TYPE": "U", "NORAD_CAT_ID": 65729, "ELEMENT_SET_NO": 999, "REV_AT_EPOCH": 1188, "BSTAR": 0.0018658226, "MEAN_MOTION_DOT": 0.00223063, "MEAN_MOTION_DDOT": 0}, "tle": {"line1": "1 65729U 98067XH  25338.59244779  .00223063  00000+0  18658-2 0  9992", "line2": "2 65729  51.6239 177.3823 0006546 225.5504 134.4958 15.68739886 11885"}}, "geometry": {"type": "Point", "coordinates": [127.7450923090078, -43.19012162889565]}}, {"type": "Feature", "properties": {"norad_id": 65730, "name": "1998-067XJ", "group": "stations", "lat": 5.3134638396021465, "lon": 172.99496451676686, "alt_km": 137.8292275783224, "timestamp": "2025-12-04T21:36:14.671964+00:00", "meta": {"OBJECT_NAME": "1998-067XJ", "OBJECT_ID": "1998-067XJ", "EPOCH": "2025-12-02T19:46:01.269984", "MEAN_MOTION": 16.23931094, "ECCENTRICITY": 0.00101147, "INCLINATION": 51.6061, "RA_OF_ASC_NODE": 180.4655, "ARG_OF_PERICENTER": 256.3912, "MEAN_ANOMALY": 103.5981, "EPHEMERIS_TYPE": 0, "CLASSIFICATION_TYPE": "U", "NORAD_CAT_ID": 65730, "ELEMENT_SET_NO": 999, "REV_AT_EPOCH": 1168, "BSTAR": 0.002285911, "MEAN_MOTION_DOT": 0.06330363, "MEAN_MOTION_DDOT": 1.1931217e-05}, "tle": {"line1": "1 65730U 98067XJ  25336.82362581  .06330363  11931-4  22859-2 0  9996", "line2": "2 65730  51.6061 180.4655 0010114 256.3912 103.5981 16.23931094 11687"}}, "geometry": {"type": "Point", "coordinates": [172.99496451676686, 5.3134638396021465]}}, {"type": "Feature", "properties": {"norad_id": 65731, "name": "1998-067XK", "group": "stations", "lat": 42.91351095816047, "lon": -50.500930785796875, "alt_km": 369.8582552756352, "timestamp": "2025-12-04T21:36:14.671975+00:00", "meta": {"OBJECT_NAME": "1998-067XK", "OBJECT_ID": "1998-067XK", "EPOCH": "2025-12-03T20:33:14.862528", "MEAN_MOTION": 15.63596152, "ECCENTRICITY": 0.00059045, "INCLINATION": 51.628, "RA_OF_ASC_NODE": 182.229, "ARG_OF_PERICENTER": 193.4783, "MEAN_ANOMALY": 166.6055, "EPHEMERIS_TYPE": 0, "CLASSIFICATION_TYPE": "U", "NORAD_CAT_ID": 65731, "ELEMENT_SET_NO": 999, "REV_AT_EPOCH": 1175, "BSTAR": 0.0013142835, "MEAN_MOTION_DOT": 0.00126041, "MEAN_MOTION_DDOT": 0}, "tle": {"line1": "1 65731U 98067XK  25337.85642202  .00126041  00000+0  13143-2 0  9998", "line2": "2 65731  51.6280 182.2290 0005904 193.4783 166.6055 15.63596152 11759"}}, "geometry": {"type": "Point", "coordinates": [-50.500930785796875, 42.91351095816047]}}, {"type": "Feature", "properties": {"norad_id": 65732, "name": "RSP-03", "group": "stations", "lat": 14.581685563094293, "lon": -171.6999006974854, "alt_km": 372.69557642434484, "timestamp": "2025-12-04T21:36:14.671985+00:00", "meta": {"OBJECT_NAME": "RSP-03", "OBJECT_ID": "1998-067XL", "EPOCH": "2025-12-04T13:52:03.031104", "MEAN_MOTION": 15.66125442, "ECCENTRICITY": 0.00064956, "INCLINATION": 51.625, "RA_OF_ASC_NODE": 178.0408, "ARG_OF_PERICENTER": 200.7712, "MEAN_ANOMALY": 159.3021, "EPHEMERIS_TYPE": 0, "CLASSIFICATION_TYPE": "U", "NORAD_CAT_ID": 65732, "ELEMENT_SET_NO": 999, "REV_AT_EPOCH": 1188, "BSTAR": 0.0016859447, "MEAN_MOTION_DOT": 0.00180215, "MEAN_MOTION_DDOT": 0}, "tle": {"line1": "1 65732U 98067XL  25338.57781286  .00180215  00000+0  16859-2 0  9995", "line2": "2 65732  51.6250 178.0408 0006495 200.7712 159.3021 15.66125442 11880"}}, "geometry": {"type": "Point", "coordinates": [-171.6999006974854, 14.581685563094293]}}, {"type": "Feature", "properties": {"norad_id": 65733, "name": "GHS-01", "group": "stations", "lat": 28.917999850490027, "lon": -30.56616110318412, "alt_km": 351.99356604597415, "timestamp": "2025-12-04T21:36:14.671996+00:00", "meta": {"OBJECT_NAME": "GHS-01", "OBJECT_ID": "1998-067XM", "EPOCH": "2025-12-03T22:05:54.332736", "MEAN_MOTION": 15.70494881, "ECCENTRICITY": 0.0007009, "INCLINATION": 51.6271, "RA_OF_ASC_NODE": 180.4028, "ARG_OF_PERICENTER": 220.9221, "MEAN_ANOMALY": 139.1251, "EPHEMERIS_TYPE": 0, "CLASSIFICATION_TYPE": "U", "NORAD_CAT_ID": 65733, "ELEMENT_SET_NO": 999, "REV_AT_EPOCH": 1179, "BSTAR": 0.001848703, "MEAN_MOTION_DOT": 0.00238165, "MEAN_MOTION_DDOT": 0}, "tle": {"line1": "1 65733U 98067XM  25337.92076774  .00238165  00000+0  18487-2 0  9990", "line2": "2 65733  51.6271 180.4028 0007009 220.9221 139.1251 15.70494881 11792"}}, "geometry": {"type": "Point", "coordinates": [-30.56616110318412, 28.917999850490027]}}, {"type": "Feature", "properties": {"norad_id": 65941, "name": "YOTSUBA-KULOVER", "group": "stations", "lat": 37.28237388057757, "lon": -143.55764059456206, "alt_km": 388.99809934659606, "timestamp": "2025-12-04T21:36:14.672007+00:00", "meta": {"OBJECT_NAME": "YOTSUBA-KULOVER", "OBJECT_ID": "1998-067XN", "EPOCH": "2025-12-04T13:41:28.106016", "MEAN_MOTION": 15.58052031, "ECCENTRICITY": 0.00020554, "INCLINATION": 51.6276, "RA_OF_ASC_NODE": 180.9943, "ARG_OF_PERICENTER": 178.3938, "MEAN_ANOMALY": 181.7061, "EPHEMERIS_TYPE": 0, "CLASSIFICATION_TYPE": "U", "NORAD_CAT_ID": 65941, "ELEMENT_SET_NO": 999, "REV_AT_EPOCH": 858, "BSTAR": 0.0013676634, "MEAN_MOTION_DOT": 0.00105594, "MEAN_MOTION_DDOT": 0}, "tle": {"line1": "1 65941U 98067XN  25338.57046419  .00105594  00000+0  13677-2 0  9991", "line2": "2 65941  51.6276 180.9943 0002055 178.3938 181.7061 15.58052031  8584"}}, "geometry": {"type": "Point", "coordinates": [-143.55764059456206, 37.28237388057757]}}]}